[{"OBJECT_NAME":"JILIN-1 KUANFU-01B","OBJECT_ID":"2021-061A","EPOCH":"2026-03-09T22:54:34.499808","MEAN_MOTION":15.09454544,"ECCENTRICITY":0.00089006,"INCLINATION":97.5272,"RA_OF_ASC_NODE":146.9765,"ARG_OF_PERICENTER":57.5197,"MEAN_ANOMALY":302.6891,"EPHEMERIS_TYPE":0,"CLASSIFICATION_TYPE":"U","NORAD_CAT_ID":49003,"ELEMENT_SET_NO":999,"REV_AT_EPOCH":25837,"BSTAR":0.00023291265,"MEAN_MOTION_DOT":3.668e-5,"MEAN_MOTION_DDOT":0},{"OBJECT_NAME":"STARLINK-4041","OBJECT_ID":"2022-053AR","EPOCH":"2026-03-09T11:47:11.103936","MEAN_MOTION":15.08841015,"ECCENTRICITY":7.33e-5,"INCLINATION":53.2172,"RA_OF_ASC_NODE":149.8112,"ARG_OF_PERICENTER":53.5314,"MEAN_ANOMALY":306.5745,"EPHEMERIS_TYPE":0,"CLASSIFICATION_TYPE":"U","NORAD_CAT_ID":52695,"ELEMENT_SET_NO":999,"REV_AT_EPOCH":21106,"BSTAR":-2.1920007e-5,"MEAN_MOTION_DOT":-6.36e-6,"MEAN_MOTION_DDOT":0}]
